QIANFAN-105             
1 66047U 25233Q   26005.12990881  .00000246  00000+0  18673-3 0  9998
2 66047  88.9941  59.5856 0014241 335.9470  24.1037 13.90525917 11242
QIANFAN-106             
1 66048U 25233R   26005.12094438  .00000134  00000+0  16933-3 0  9995
2 66048  88.9926  59.7057 0013970 333.4745  26.5694 13.57813984 11171
QIANFAN-107             
1 66049U 25233S   26005.12623053  .00000139  00000+0  17583-3 0  9994
2 66049  88.9940  59.7110 0013715 338.1699  21.8870 13.57810783 11173
QIANFAN-108             
1 66050U 25233T   26005.18552425  .00000051  00000+0  56927-4 0  9995
2 66050  88.9935  59.6998 0013601 338.2284  21.8289 13.54394750 11180
